{
  "norad_id": 58878,
  "name": "STARLINK-31300",
  "history": [
    {
      "epoch": "2026-03-28T19:47:14.426592",
      "apogee_km": 475.9290589052853,
      "perigee_km": 474.5161702871401,
      "latitude_deg": -39.311216749708954,
      "longitude_deg": 146.94936288008466,
      "semi_major_axis_km": 6853.359614596213,
      "eccentricity": 0.00010308,
      "inclination_deg": 53.1604,
      "raan_deg": 233.3335,
      "arg_perigee_deg": 85.1272,
      "mean_anomaly_deg": 274.9846,
      "mean_motion_rev_day": 15.30197473
    }
  ]
}